NORAD_CAT_ID,OBJECT_NAME,OBJECT_TYPE,EPOCH,MEAN_MOTION,ECCENTRICITY,INCLINATION,RA_OF_ASC_NODE,ARG_OF_PERICENTER,MEAN_ANOMALY,BSTAR,MEAN_MOTION_DOT,MEAN_MOTION_DDOT,TLE_LINE0,TLE_LINE1,TLE_LINE2,SEMIMAJOR_AXIS,PERIOD,APOGEE,PERIGEE,DECAYED
49741.0,STARLINK-3244,PAYLOAD,2022-08-24 14:38:27,15.08839415,0.0002019,53.2156,193.9787,57.6988,302.4199,0.00011248,1.502e-05,0.0,0 STARLINK-3244,1 49741U 21115T   22236.61003896  .00001502  00000-0  11248-3 0  9990,2 49741  53.2156 193.9787 0002019  57.6988 302.4199 15.08839415 40329,6917.882,95.438,541.144,538.35,0.0
49741.0,STARLINK-3244,PAYLOAD,2022-08-25 03:21:32,15.08845429,0.0002048,53.2155,191.5994,59.1872,300.9321,0.00010882,1.444e-05,0.0,0 STARLINK-3244,1 49741U 21115T   22237.13995483  .00001444  00000-0  10882-3 0  9998,2 49741  53.2155 191.5994 0002048  59.1872 300.9321 15.08845429 41517,6917.864000000001,95.437,541.146,538.312,0.0
49741.0,STARLINK-3244,PAYLOAD,2022-08-25 06:32:18,15.088459599999998,0.0002058,53.2155,191.0047,59.341,300.7785,0.00010961,1.457e-05,0.0,0 STARLINK-3244,1 49741U 21115T   22237.27243405  .00001457  00000-0  10961-3 0  9995,2 49741  53.2155 191.0047 0002058  59.3410 300.7785 15.08845960 40423,6917.861999999999,95.437,541.151,538.303,0.0
49741.0,STARLINK-3244,PAYLOAD,2022-08-26 03:12:19,15.08841419,0.0002097,53.2156,187.1386,62.1364,297.9840000000001,2.0608000000000007e-05,4e-07,0.0,0 STARLINK-3244,1 49741U 21115T   22238.13355831  .00000040  00000-0  20608-4 0  9995,2 49741  53.2156 187.1386 0002097  62.1364 297.9840 15.08841419 41660,6917.876,95.437,541.192,538.29,0.0
49741.0,STARLINK-3244,PAYLOAD,2022-08-26 06:23:05,15.08843126,0.0002109,53.2157,186.5442,61.6265,298.494,2.270300000000001e-05,7.3e-07,0.0,0 STARLINK-3244,1 49741U 21115T   22238.26603692  .00000073  00000-0  22703-4 0  9994,2 49741  53.2157 186.5442 0002109  61.6265 298.4940 15.08843126 40578,6917.871,95.437,541.195,538.2769999999998,0.0
49741.0,STARLINK-3244,PAYLOAD,2022-08-26 20:41:33,15.0884904,0.0002145,53.2159,183.8679,63.0337,297.0874,3.2232e-05,2.25e-06,0.0,0 STARLINK-3244,1 49741U 21115T   22238.86219078  .00000225  00000-0  32232-4 0  9998,2 49741  53.2159 183.8679 0002145  63.0337 297.0874 15.08849040 40660,6917.853,95.437,541.202,538.234,0.0
49741.0,STARLINK-3244,PAYLOAD,2022-08-27 06:13:52,15.0883893,0.0002102,53.2155,182.0845,62.793,297.3276,-6.515e-05,-1.325e-05,0.0,0 STARLINK-3244,1 49741U 21115T   22239.25963812 -.00001325  00000-0 -65150-4 0  9993,2 49741  53.2155 182.0845 0002102  62.7930 297.3276 15.08838930 40722,6917.884,95.438,541.203,538.295,0.0
49741.0,STARLINK-3244,PAYLOAD,2022-08-28 12:26:11,15.08845553,0.0002098,53.2156,176.4338,61.2681,298.8522,6.1111e-05,6.85e-06,0.0,0 STARLINK-3244,1 49741U 21115T   22240.51819156  .00000685  00000-0  61111-4 0  9994,2 49741  53.2156 176.4338 0002098  61.2681 298.8522 15.08845553 40918,6917.863,95.437,541.18,538.2769999999998,0.0
49741.0,STARLINK-3244,PAYLOAD,2022-08-29 05:55:26,15.08840525,0.0002112999999999,53.2157,173.1626,62.1084,298.0122,-2.3906e-05,-6.69e-06,0.0,0 STARLINK-3244,1 49741U 21115T   22241.24683678 -.00000669  00000-0 -23906-4 0  9997,2 49741  53.2157 173.1626 0002113  62.1084 298.0122 15.08840525 42136,6917.879,95.438,541.206,538.2819999999998,0.0
49741.0,STARLINK-3244,PAYLOAD,2022-08-29 12:16:59,15.08840757,0.0002059,53.2153,171.9735,61.8283,298.2916,3.298e-05,2.37e-06,0.0,0 STARLINK-3244,1 49741U 21115T   22241.51179551  .00000237  00000-0  32980-4 0  9998,2 49741  53.2153 171.9735 0002059  61.8283 298.2916 15.08840757 41066,6917.878000000002,95.438,541.1669999999998,538.319,0.0
49741.0,STARLINK-3244,PAYLOAD,2022-08-30 04:10:51,15.08829559,0.0002121,53.2159,168.9999,62.4322,297.6885,-6.729199999999999e-05,-1.359e-05,0.0,0 STARLINK-3244,1 49741U 21115T   22242.17420931 -.00001359  00000-0 -67292-4 0  9994,2 49741  53.2159 168.9999 0002121  62.4322 297.6885 15.08829559 42270,6917.9119999999975,95.438,541.245,538.31,0.0
49741.0,STARLINK-3244,PAYLOAD,2022-08-30 05:46:14,15.08830333,0.0002086999999999,53.2159,168.7027,63.4888,296.6318,-6.3092e-05,-1.292e-05,0.0,0 STARLINK-3244,1 49741U 21115T   22242.24044891 -.00001292  00000-0 -63092-4 0  9999,2 49741  53.2159 168.7027 0002087  63.4888 296.6318 15.08830333 41179,6917.91,95.438,541.219,538.331,0.0
49741.0,STARLINK-3244,PAYLOAD,2022-08-31 04:01:38,15.08836772,0.000214,53.2161,164.5398,61.3048,298.8159,6.7332e-05,7.83e-06,0.0,0 STARLINK-3244,1 49741U 21115T   22243.16780452  .00000783  00000-0  67332-4 0  9994,2 49741  53.2161 164.5398 0002140  61.3048 298.8159 15.08836772 41318,6917.89,95.438,541.236,538.275,0.0
49741.0,STARLINK-3244,PAYLOAD,2022-09-01 11:49:21,15.08836784,0.0001876999999999,53.2156,158.5919,63.7211,296.3974,0.00010732,1.42e-05,0.0,0 STARLINK-3244,1 49741U 21115T   22244.49260715  .00001420  00000-0  10732-3 0  9996,2 49741  53.2156 158.5919 0001877  63.7211 296.3974 15.08836784 41511,6917.89,95.438,541.054,538.457,0.0
49741.0,STARLINK-3244,PAYLOAD,2022-09-02 03:43:12,15.08848078,0.0002005,53.216,155.6182,62.9664,297.1533,8.0839e-05,9.99e-06,0.0,0 STARLINK-3244,1 49741U 21115T   22245.15500020  .00000999  00000-0  80839-4 0  9992,2 49741  53.2160 155.6182 0002005  62.9664 297.1533 15.08848078 42726,6917.856,95.437,541.1080000000002,538.3340000000002,0.0
49741.0,STARLINK-3244,PAYLOAD,2022-09-02 11:40:08,15.08834528,0.0002514,53.2161,154.1313,67.92399999999999,292.2019,-3.3807e-05,-8.26e-06,0.0,0 STARLINK-3244,1 49741U 21115T   22245.48621444 -.00000826  00000-0 -33807-4 0  9996,2 49741  53.2161 154.1313 0002514  67.9240 292.2019 15.08834528 41669,6917.897,95.438,541.501,538.023,0.0
49741.0,STARLINK-3244,PAYLOAD,2022-09-02 21:12:27,15.08832746,0.0002044,53.216,152.3471,63.1011,297.019,5.2177e-05,5.42e-06,0.0,0 STARLINK-3244,1 49741U 21115T   22245.88364966  .00000542  00000-0  52177-4 0  9997,2 49741  53.2160 152.3471 0002044  63.1011 297.0190 15.08832746 41725,6917.903,95.438,541.182,538.354,0.0
49741.0,STARLINK-3244,PAYLOAD,2022-09-03 03:33:59,15.08838823,0.0002045999999999,53.216,151.1578,63.7461,296.3742,0.00010883,1.444e-05,0.0,0 STARLINK-3244,1 49741U 21115T   22246.14860815  .00001444  00000-0  10883-3 0  9990,2 49741  53.2160 151.1578 0002046  63.7461 296.3742 15.08838823 41768,6917.884,95.438,541.164,538.3340000000002,0.0
49741.0,STARLINK-3244,PAYLOAD,2022-09-03 21:03:13,15.08853182,0.0002044,53.2163,147.8862,67.0561,293.0647,0.00016679,2.368e-05,0.0,0 STARLINK-3244,1 49741U 21115T   22246.87723763  .00002368  00000-0  16679-3 0  9995,2 49741  53.2163 147.8862 0002044  67.0561 293.0647 15.08853182 42983,6917.84,95.437,541.119,538.2909999999998,0.0
49741.0,STARLINK-3244,PAYLOAD,2022-09-04 03:24:46,15.08853857,0.0001996999999999,53.2151,146.6974,66.7612,293.3591,0.00022681,3.325e-05,0.0,0 STARLINK-3244,1 49741U 21115T   22247.14219928  .00003325  00000-0  22681-3 0  9993,2 49741  53.2151 146.6974 0001997  66.7612 293.3591 15.08853857 41912,6917.8380000000025,95.437,541.085,538.322,0.0
49741.0,STARLINK-3244,PAYLOAD,2022-09-05 03:15:32,15.08850746,0.0001899999999999,53.2152,142.2374,67.3756,292.7437,0.0001623,2.297e-05,0.0,0 STARLINK-3244,1 49741U 21115T   22248.13579635  .00002297  00000-0  16230-3 0  9997,2 49741  53.2152 142.2374 0001900  67.3756 292.7437 15.08850746 43175,6917.848000000001,95.437,541.0269999999998,538.398,0.0
49741.0,STARLINK-3244,PAYLOAD,2022-09-05 09:37:05,15.08850571,0.0001891,53.215,141.0469,64.569,295.5498,7.8343e-05,9.59e-06,0.0,0 STARLINK-3244,1 49741U 21115T   22248.40075423  .00000959  00000-0  78343-4 0  9990,2 49741  53.2150 141.0469 0001891  64.5690 295.5498 15.08850571 42106,6917.848000000001,95.437,541.021,538.405,0.0
49741.0,STARLINK-3244,PAYLOAD,2022-09-05 20:44:46,15.0884878,0.0001903,53.2152,138.9655,64.557,295.5619,-1.941e-05,-5.97e-06,0.0,0 STARLINK-3244,1 49741U 21115T   22248.86443170 -.00000597  00000-0 -19410-4 0  9998,2 49741  53.2152 138.9655 0001903  64.5570 295.5619 15.08848780 42172,6917.854,95.437,541.035,538.4019999999998,0.0
49741.0,STARLINK-3244,PAYLOAD,2022-09-06 03:06:19,15.08833241,0.0001972,53.2157,137.77700000000002,54.6764,305.4412,-0.00023572,-4.037e-05,0.0,0 STARLINK-3244,1 49741U 21115T   22249.12939595 -.00004037  00000-0 -23572-3 0  9995,2 49741  53.2157 137.7770 0001972  54.6764 305.4412 15.08833241 43329,6917.901,95.438,541.13,538.4019999999998,0.0
49741.0,STARLINK-3244,PAYLOAD,2022-09-06 04:41:43,15.08833047,0.0002051,53.2157,137.4799,54.416,305.7023,-0.00022056,-3.796e-05,0.0,0 STARLINK-3244,1 49741U 21115T   22249.19563917 -.00003796  00000-0 -22056-3 0  9990,2 49741  53.2157 137.4799 0002051  54.4160 305.7023 15.08833047 42227,6917.901999999999,95.438,541.186,538.3480000000002,0.0
49741.0,STARLINK-3244,PAYLOAD,2022-09-07 04:32:31,15.08831328,0.0001878,53.2154,133.0183,58.5691,301.5484,-3.6871e-05,-8.75e-06,0.0,0 STARLINK-3244,1 49741U 21115T   22250.18924781 -.00000875  00000-0 -36871-4 0  9997,2 49741  53.2154 133.0183 0001878  58.5691 301.5484 15.08831328 43487,6917.906999999997,95.438,541.071,538.4730000000002,0.0
49741.0,STARLINK-3244,PAYLOAD,2022-09-07 20:26:22,15.08839396,0.0001666999999999,53.2154,130.0449,59.1047,301.0109,0.0001876999999999,2.7e-05,0.0,0 STARLINK-3244,1 49741U 21115T   22250.85164754  .00002700  00000-0  18770-3 0  9991,2 49741  53.2154 130.0449 0001667  59.1047 301.0109 15.08839396 42477,6917.882,95.438,540.9,538.594,0.0
49741.0,STARLINK-3244,PAYLOAD,2022-09-08 04:23:18,15.08845005,0.0001613,53.2147,128.5583,58.2129,301.902,0.00055334,8.531e-05,0.0,0 STARLINK-3244,1 49741U 21115T   22251.18285047  .00008531  00000-0  55334-3 0  9992,2 49741  53.2147 128.5583 0001613  58.2129 301.9020 15.08845005 42523,6917.865,95.437,540.846,538.614,0.0
49741.0,STARLINK-3244,PAYLOAD,2022-09-08 21:52:32,15.08846118,0.0001585,53.2147,125.2869,60.0058,300.1092,0.00032808,4.938e-05,0.0,0 STARLINK-3244,1 49741U 21115T   22251.91149010  .00004938  00000-0  32808-3 0  9990,2 49741  53.2147 125.2869 0001585  60.0058 300.1092 15.08846118 43745,6917.861999999999,95.437,540.823,538.63,0.0
